[{"OBJECT_NAME":"SHIJIAN-6 05A (SJ-6 05A)","OBJECT_ID":"2021-122A","EPOCH":"2026-03-09T21:12:10.842048","MEAN_MOTION":14.99085264,"ECCENTRICITY":0.0003221,"INCLINATION":97.4012,"RA_OF_ASC_NODE":42.3306,"ARG_OF_PERICENTER":76.6317,"MEAN_ANOMALY":283.5266,"EPHEMERIS_TYPE":0,"CLASSIFICATION_TYPE":"U","NORAD_CAT_ID":49961,"ELEMENT_SET_NO":999,"REV_AT_EPOCH":23387,"BSTAR":0.00027617,"MEAN_MOTION_DOT":3.299e-5,"MEAN_MOTION_DDOT":0},{"OBJECT_NAME":"STARLINK-5811","OBJECT_ID":"2023-028AY","EPOCH":"2026-03-09T18:15:42.789888","MEAN_MOTION":14.98326371,"ECCENTRICITY":0.00030614,"INCLINATION":70.0008,"RA_OF_ASC_NODE":204.4047,"ARG_OF_PERICENTER":265.1387,"MEAN_ANOMALY":94.9423,"EPHEMERIS_TYPE":0,"CLASSIFICATION_TYPE":"U","NORAD_CAT_ID":55787,"ELEMENT_SET_NO":999,"REV_AT_EPOCH":16703,"BSTAR":-2.524832e-6,"MEAN_MOTION_DOT":-1.23e-6,"MEAN_MOTION_DDOT":0}]
